NORAD_CAT_ID,OBJECT_NAME,OBJECT_TYPE,EPOCH,MEAN_MOTION,ECCENTRICITY,INCLINATION,RA_OF_ASC_NODE,ARG_OF_PERICENTER,MEAN_ANOMALY,BSTAR,MEAN_MOTION_DOT,MEAN_MOTION_DDOT,TLE_LINE0,TLE_LINE1,TLE_LINE2,SEMIMAJOR_AXIS,PERIOD,APOGEE,PERIGEE,DECAYED
53017.0,STARLINK-4281,PAYLOAD,2024-07-25 10:19:52,15.0884253,0.0001344,53.2153,222.8739,91.1609,268.9537,6.9802e-05,8.23e-06,0.0,0 STARLINK-4281,1 53017U 22076AH  24207.43047034  .00000823  00000-0  69802-4 0  9995,2 53017  53.2153 222.8739 0001344  91.1609 268.9537 15.08842530114044,6917.873,95.437,540.667,538.808,0.0
53017.0,STARLINK-4281,PAYLOAD,2024-07-26 06:59:53,15.08842599,0.000142,53.2153,219.0078,91.1972,268.9183,0.00016726,2.375e-05,0.0,0 STARLINK-4281,1 53017U 22076AH  24208.29158708  .00002375  00000-0  16726-3 0  9991,2 53017  53.2153 219.0078 0001420  91.1972 268.9183 15.08842599113711,6917.872,95.437,540.72,538.755,0.0
53017.0,STARLINK-4281,PAYLOAD,2024-07-26 21:18:21,15.08844909,0.00015,53.2159,216.3319,91.8602,268.2562,0.00012418,1.689e-05,0.0,0 STARLINK-4281,1 53017U 22076AH  24208.88774579  .00001689  00000-0  12418-3 0  9997,2 53017  53.2159 216.3319 0001500  91.8602 268.2562 15.08844909114263,6917.865,95.437,540.768,538.693,0.0
53017.0,STARLINK-4281,PAYLOAD,2024-07-27 06:50:40,15.08842665,0.0001483,53.2157,214.5477,91.4594,268.6568,5.0834e-05,5.21e-06,0.0,0 STARLINK-4281,1 53017U 22076AH  24209.28518810  .00000521  00000-0  50834-4 0  9995,2 53017  53.2157 214.5477 0001483  91.4594 268.6568 15.08842665113864,6917.872,95.437,540.763,538.711,0.0
53017.0,STARLINK-4281,PAYLOAD,2024-07-27 10:01:26,15.08844042,0.0001484,53.2157,213.9526,92.1195,267.9967,5.9436e-05,6.58e-06,0.0,0 STARLINK-4281,1 53017U 22076AH  24209.41766646  .00000658  00000-0  59436-4 0  9990,2 53017  53.2157 213.9526 0001484  92.1195 267.9967 15.08844042113886,6917.868,95.437,540.76,538.706,0.0
53017.0,STARLINK-4281,PAYLOAD,2024-07-28 05:06:04,15.08843012,0.0001481,53.2158,210.3835,94.8271,265.2891,1.3185e-05,-7.8e-07,0.0,0 STARLINK-4281,1 53017U 22076AH  24210.21254643 -.00000078  00000-0  13185-4 0  9997,2 53017  53.2158 210.3835 0001481  94.8271 265.2891 15.08843012114460,6917.871,95.437,540.761,538.712,0.0
53017.0,STARLINK-4281,PAYLOAD,2024-07-28 06:41:27,15.08841388,0.0001486,53.2159,210.0869,91.4448,268.6714,4.8369e-06,-2.11e-06,0.0,0 STARLINK-4281,1 53017U 22076AH  24210.27878759 -.00000211  00000-0  48369-5 0  9995,2 53017  53.2159 210.0869 0001486  91.4448 268.6714 15.08841388114015,6917.876,95.437,540.769,538.713,0.0
53017.0,STARLINK-4281,PAYLOAD,2024-07-29 04:56:51,15.08837106,0.0001421,53.2158,205.9234,90.655,269.4605,3.4334e-05,2.58e-06,0.0,0 STARLINK-4281,1 53017U 22076AH  24211.20614910  .00000258  00000-0  34334-4 0  9992,2 53017  53.2158 205.9234 0001421  90.6550 269.4605 15.08837106114614,6917.889,95.438,540.737,538.771,0.0
53017.0,STARLINK-4281,PAYLOAD,2024-07-29 06:32:14,15.08837042,0.0001347,53.2153,205.6246,89.2367,270.8779,2.6715e-05,1.37e-06,0.0,0 STARLINK-4281,1 53017U 22076AH  24211.27238913  .00000137  00000-0  26715-4 0  9994,2 53017  53.2153 205.6246 0001347  89.2367 270.8779 15.08837042114163,6917.889,95.438,540.686,538.823,0.0
53017.0,STARLINK-4281,PAYLOAD,2024-07-29 16:04:33,15.08841312,0.0001365,53.2157,203.8412,88.6689,271.4459,4.5682e-05,4.39e-06,0.0,0 STARLINK-4281,1 53017U 22076AH  24211.66982645  .00000439  00000-0  45682-4 0  9994,2 53017  53.2157 203.8412 0001365  88.6689 271.4459 15.08841312114226,6917.876,95.437,540.686,538.797,0.0
53017.0,STARLINK-4281,PAYLOAD,2024-07-30 04:47:38,15.08830828,0.0001458,53.2168,201.4663,87.8789,272.237,1.2334e-05,-9.2e-07,0.0,0 STARLINK-4281,1 53017U 22076AH  24212.19975674 -.00000092  00000-0  12334-4 0  9991,2 53017  53.2168 201.4663 0001458  87.8789 272.2370 15.08830828114765,6917.908,95.438,540.782,538.765,0.0
53017.0,STARLINK-4281,PAYLOAD,2024-07-30 09:33:48,15.08831695,0.0001511,53.2167,200.5705,92.3823,267.7343,2.793e-05,1.56e-06,0.0,0 STARLINK-4281,1 53017U 22076AH  24212.39847610  .00000156  00000-0  27930-4 0  9999,2 53017  53.2167 200.5705 0001511  92.3823 267.7343 15.08831695114336,6917.906,95.438,540.816,538.725,0.0
53017.0,STARLINK-4281,PAYLOAD,2024-07-31 04:38:25,15.08842734,0.0001361,53.216,197.0037,99.1468,260.9678,0.00011834,1.596e-05,0.0,0 STARLINK-4281,1 53017U 22076AH  24213.19334768  .00001596  00000-0  11834-3 0  9997,2 53017  53.2160 197.0037 0001361  99.1468 260.9678 15.08842734114916,6917.872,95.437,540.679,538.796,0.0
53017.0,STARLINK-4281,PAYLOAD,2024-07-31 15:46:04,15.08868066,0.0001282,53.2166,194.9225,87.1982,272.9157,0.00029914,4.48e-05,0.0,0 STARLINK-4281,1 53017U 22076AH  24213.65700150  .00004480  00000-0  29914-3 0  9993,2 53017  53.2166 194.9225 0001282  87.1982 272.9157 15.08868066114985,6917.795,95.436,540.546,538.773,0.0
53017.0,STARLINK-4281,PAYLOAD,2024-08-01 04:29:13,15.08828387,0.0001703,53.216,192.5434,79.8448,280.2736,-2.3804e-05,-6.67e-06,0.0,0 STARLINK-4281,1 53017U 22076AH  24214.18695891 -.00000667  00000-0 -23804-4 0  9995,2 53017  53.2160 192.5434 0001703  79.8448 280.2736 15.08828387115065,6917.916,95.438,540.959,538.603,0.0
53017.0,STARLINK-4281,PAYLOAD,2024-08-01 06:04:36,15.08828821,0.0001614,53.2161,192.246,78.9202,281.1971,-1.9025e-05,-5.91e-06,0.0,0 STARLINK-4281,1 53017U 22076AH  24214.25319885 -.00000591  00000-0 -19025-4 0  9995,2 53017  53.2161 192.2460 0001614  78.9202 281.1971 15.08828821114615,6917.915,95.438,540.896,538.663,0.0
53017.0,STARLINK-4281,PAYLOAD,2024-08-01 21:58:27,15.0883727,0.0001255,53.2171,189.2694,96.9919,263.1216,-2.1042e-05,-6.23e-06,0.0,0 STARLINK-4281,1 53017U 22076AH  24214.91559333 -.00000623  00000-0 -21042-4 0  9990,2 53017  53.2171 189.2694 0001255  96.9919 263.1216 15.08837270114718,6917.889,95.438,540.622,538.886,0.0
53017.0,STARLINK-4281,PAYLOAD,2024-08-02 04:19:59,15.08844399,0.0001674,53.2168,188.0823,77.6264,282.4915,1.9543e-06,-2.57e-06,0.0,0 STARLINK-4281,1 53017U 22076AH  24215.18055173 -.00000257  00000-0  19543-5 0  9999,2 53017  53.2168 188.0823 0001674  77.6264 282.4915 15.08844399115215,6917.867,95.437,540.89,538.574,0.0
53017.0,STARLINK-4281,PAYLOAD,2024-08-02 05:55:22,15.08853017,0.0001937,53.2166,187.7846,115.4345,244.6848,-0.00010269,-1.923e-05,0.0,0 STARLINK-4281,1 53017U 22076AH  24215.24678712 -.00001923  00000-0 -10269-3 0  9992,2 53017  53.2166 187.7846 0001937 115.4345 244.6848 15.08853017114768,6917.841,95.437,541.046,538.366,0.0
53017.0,STARLINK-4281,PAYLOAD,2024-08-02 15:27:42,15.08827543,0.0001925,53.2159,186.0012,115.089,245.0302,0.0007015,0.0001089,0.0,0 STARLINK-4281,1 53017U 22076AH  24215.64423922  .00010890  00000-0  70150-3 0  9993,2 53017  53.2159 186.0012 0001925 115.0890 245.0302 15.08827543115288,6917.918,95.438,541.115,538.452,0.0
53017.0,STARLINK-4281,PAYLOAD,2024-08-02 21:49:14,15.08834275,0.0001828,53.2151,184.8124,79.0745,281.0452,0.00027634,4.112e-05,0.0,0 STARLINK-4281,1 53017U 22076AH  24215.90919505  .00004112  00000-0  27634-3 0  9998,2 53017  53.2151 184.8124 0001828  79.0745 281.0452 15.08834275114869,6917.898,95.438,541.027,538.498,0.0
53017.0,STARLINK-4281,PAYLOAD,2024-08-03 07:21:33,15.0883997,0.0001772,53.2151,183.0261,84.0673,276.0521,0.00026082,3.865e-05,0.0,0 STARLINK-4281,1 53017U 22076AH  24216.30663444  .00003865  00000-0  26082-3 0  9991,2 53017  53.2151 183.0261 0001772  84.0673 276.0521 15.08839970114921,6917.88,95.438,540.971,538.52,0.0
53017.0,STARLINK-4281,PAYLOAD,2024-08-03 15:18:28,15.08846549,0.0001839,53.2155,181.5397,85.3438,274.7764,0.0003276,4.93e-05,0.0,0 STARLINK-4281,1 53017U 22076AH  24216.63783244  .00004930  00000-0  32760-3 0  9992,2 53017  53.2155 181.5397 0001839  85.3438 274.7764 15.08846549114974,6917.86,95.437,540.998,538.453,0.0
53017.0,STARLINK-4281,PAYLOAD,2024-08-04 04:01:34,15.08839706,0.0001992,53.2163,179.1596,95.3568,264.7652,9.118e-05,1.163e-05,0.0,0 STARLINK-4281,1 53017U 22076AH  24217.16775578  .00001163  00000-0  91180-4 0  9999,2 53017  53.2163 179.1596 0001992  95.3568 264.7652 15.08839706115515,6917.881,95.438,541.124,538.368,0.0
53017.0,STARLINK-4281,PAYLOAD,2024-08-04 21:30:48,15.08848724,0.0002289,53.2146,175.8878,101.4303,258.6946,0.00026761,3.974e-05,0.0,0 STARLINK-4281,1 53017U 22076AH  24217.89639214  .00003974  00000-0  26761-3 0  9999,2 53017  53.2146 175.8878 0002289 101.4303 258.6946 15.08848724115167,6917.854,95.437,541.302,538.135,0.0
53017.0,STARLINK-4281,PAYLOAD,2024-08-05 07:03:06,15.08844337,0.0001831,53.2179,174.1045,107.0438,253.0755,8.582e-05,1.078e-05,0.0,0 STARLINK-4281,1 53017U 22076AH  24218.29383096  .00001078  00000-0  85820-4 0  9993,2 53017  53.2179 174.1045 0001831 107.0438 253.0755 15.08844337115684,6917.867,95.437,540.999,538.465,0.0
53017.0,STARLINK-4281,PAYLOAD,2024-08-06 03:43:09,15.08823789,0.000173,53.2162,170.2348,91.2608,268.8583,-5.6226e-05,-1.182e-05,0.0,0 STARLINK-4281,1 53017U 22076AH  24219.15497340 -.00001182  00000-0 -56226-4 0  9993,2 53017  53.2162 170.2348 0001730  91.2608 268.8583 15.08823789115816,6917.93,95.439,540.992,538.598,0.0
53017.0,STARLINK-4281,PAYLOAD,2024-08-06 13:15:27,15.08834061,0.0001798,53.2179,168.4544,93.6377,266.482,2.861e-06,-2.43e-06,0.0,0 STARLINK-4281,1 53017U 22076AH  24219.55240716 -.00000243  00000-0  28610-5 0  9993,2 53017  53.2179 168.4544 0001798  93.6377 266.4820 15.08834061115413,6917.899,95.438,541.007,538.52,0.0
53017.0,STARLINK-4281,PAYLOAD,2024-08-07 01:58:32,15.08840039,0.000153,53.2171,166.0755,94.3934,265.7233,0.00014266,1.983e-05,0.0,0 STARLINK-4281,1 53017U 22076AH  24220.08232130  .00001983  00000-0  14266-3 0  9995,2 53017  53.2171 166.0755 0001530  94.3934 265.7233 15.08840039115955,6917.88,95.438,540.804,538.687,0.0
53017.0,STARLINK-4281,PAYLOAD,2024-08-08 01:49:19,15.0884173,0.0001418,53.2164,161.6172,120.6456,239.4676,0.00026921,3.999e-05,0.0,0 STARLINK-4281,1 53017U 22076AH  24221.07592223  .00003999  00000-0  26921-3 0  9997,2 53017  53.2164 161.6172 0001418 120.6456 239.4676 15.08841730115642,6917.875,95.437,540.721,538.759,0.0
